GALAXY 25 (G-25)        
1 24812C 97026A   22174.00000000  .00000087  00000-0  00000-0 0  1747
2 24812   3.7064  83.6112 0006012 358.8538 254.8053  1.00270727    13
GALAXY 25 (G-25)    [PM]
1 24812C 97026A   22174.75993056  .00000087  00000-0  00000-0 0  1741
2 24812   3.7084  83.6034 0006624 354.1436 173.8411  1.00271535    19
GALAXY 25 (G-25)        
1 24812C 97026A   22178.00000000  .00000087  00000-0  00000-0 0  1785
2 24812   3.7178  83.5797 0005831   2.5590 255.0697  1.00271794    18
INTELSAT 5 (IS-5)   [PM]
1 24916C 97046A   22167.00000000  .00000034  00000-0  00000-0 0  1670
2 24916   7.2273  61.0915 0004858  55.7717 313.5008  1.00273613    18
INTELSAT 5 (IS-5)       
1 24916C 97046A   22174.00000000  .00000034  00000-0  00000-0 0  1746
2 24916   7.2411  61.0124 0004490  64.3066 311.9272  1.00275751    19
INTELSAT 5 (IS-5)       
1 24916C 97046A   22178.00000000  .00000034  00000-0  00000-0 0  1784
2 24916   7.2500  60.9947 0004432  65.9379 314.2644  1.00276430    13
GALAXY 11 (G-11)        
1 26038C 99071A   22173.94164352 -.00000072  00000-0  00000-0 0  1738
2 26038   3.0108  87.6724 0000345 142.4333 286.8549  1.00271548    10
GALAXY 11 (G-11)        
1 26038C 99071A   22178.00000000 -.00000072  00000-0  00000-0 0  1784
2 26038   3.0226  87.6147 0000246 162.8038 291.5606  1.00270799    12
INTELSAT 9 (IS-9)       
1 26451C 00043A   22174.00000000 -.00000191  00000-0  00000-0 0  1748
2 26451   7.2264  61.1935 0002319 341.8109 178.1178  1.00270704    12
INTELSAT 9 (IS-9)   [PM]
1 26451C 00043A   22175.55731481 -.00000191  00000-0  00000-0 0  1754
2 26451   7.2300  61.1721 0004453  59.9824 302.1221  1.00276406    11
INTELSAT 9 (IS-9)       
1 26451C 00043A   22178.00000000 -.00000191  00000-0  00000-0 0  1786
2 26451   7.2355  61.1723 0002201 334.8504 189.0527  1.00273614    11
INTELSAT 1R (IS-1R)     
1 26608C 00072A   22173.94164352 -.00000047  00000-0  00000-0 0  1736
2 26608   4.4949  80.4105 0001455 169.8013 156.9562  1.00270557    17
INTELSAT 1R (IS-1R)     
1 26608C 00072A   22178.00000000 -.00000047  00000-0  00000-0 0  1782
2 26608   4.5059  80.4012 0001324 156.7462 195.0300  1.00272508    17
INTELSAT 10 (IS-10)     
1 26766C 01019A   22174.00000000  .00000127  00000-0  00000-0 0  1749
2 26766   5.5924  73.3087 0004474  20.9088 354.6941  1.00272755    10
INTELSAT 10 (IS-10) [PM]
1 26766C 01019A   22174.00000000  .00000127  00000-0  00000-0 0  1749
2 26766   5.5922  73.3079 0004483  20.9003 354.7042  1.00272783    10
INTELSAT 10 (IS-10)     
1 26766C 01019A   22178.00000000  .00000127  00000-0  00000-0 0  1787
2 26766   5.6031  73.2824 0004413  22.6398 356.9267  1.00274299    15
INTELSAT 901            
1 26824C 01024A   22174.00000000 -.00000112  00000-0  00000-0 0  1745
2 26824   0.0013 358.1517 0001124 147.5610  97.9245  1.00270392    11
INTELSAT 901            
1 26824C 01024A   22178.00000000 -.00000110  00000-0  00000-0 0  1781
2 26824   0.0038 338.7820 0000679 163.0224 105.7834  1.00270759    16
INTELSAT 902            
1 26900C 01039A   22174.00000000 -.00000192  00000-0  00000-0 0  1744
2 26900   2.4197  88.9346 0003223   6.9146 125.2013  1.00271908    19
INTELSAT 902            
1 26900C 01039A   22178.00000000 -.00000192  00000-0  00000-0 0  1782
2 26900   2.4315  88.8876 0003116  11.9416 124.1629  1.00271017    17
INTELSAT 902        [PM]
1 26900C 01039A   22178.84650463 -.00000192  00000-0  00000-0 0  1788
2 26900   2.4335  88.8939 0003221  13.3272  68.3449  1.00272121    18
INTELSAT 904            
1 27380C 02007A   22174.00000000 -.00000123  00000-0  00000-0 0  1747
2 27380   3.2522  85.8797 0002772   2.0869 153.6706  1.00271827    10
INTELSAT 904            
1 27380C 02007A   22178.00000000 -.00000123  00000-0  00000-0 0  1785
2 27380   3.2638  85.8406 0002632   5.8046 153.9360  1.00272588    12
INTELSAT 904        [PM]
1 27380C 02007A   22183.83312500 -.00000123  00000-0  00000-0 0  1839
2 27380   3.2738  85.8498 0003168  12.9485  92.4665  1.00271805    11
INTELSAT 905        [PM]
1 27438C 02027A   22170.94568287 -.00000094  00000-0  00000-0 0  1701
2 27438   3.0660  86.7157 0002629 346.1847 151.1830  1.00271020    10
INTELSAT 905            
1 27438C 02027A   22174.00000000 -.00000094  00000-0  00000-0 0  1740
2 27438   3.0740  86.6297 0002195 343.6043 176.4115  1.00271999    12
INTELSAT 905            
1 27438C 02027A   22178.00000000 -.00000094  00000-0  00000-0 0  1788
2 27438   3.0857  86.5883 0001982 348.5627 175.4375  1.00271956    16
GALAXY 3C (G-3C)        
1 27445C 02030A   22173.94164352 -.00003241  00000-0  00000-0 0  1731
2 27445   0.0065  47.5032 0001870 277.4867 190.0336  1.00273018    18
GALAXY 3C (G-3C)        
1 27445C 02030A   22178.00000000 -.00003078  00000-0  00000-0 0  1785
2 27445   0.0222  73.6868 0001809 246.8410 219.5204  1.00272163    17
INTELSAT 906            
1 27513C 02041A   22174.00000000  .00000105  00000-0  00000-0 0  1742
2 27513   2.0884  90.4309 0002865 357.9636 246.9023  1.00270706    17
INTELSAT 906        [PM]
1 27513C 02041A   22174.53771991  .00000105  00000-0  00000-0 0  1744
2 27513   2.0897  90.4147 0003188 358.6535  80.3364  1.00270482    15
INTELSAT 906            
1 27513C 02041A   22178.00000000  .00000105  00000-0  00000-0 0  1780
2 27513   2.0999  90.3844 0002732   3.8110 245.0358  1.00272004    18
GALAXY 12 (G-12)        
1 27715C 03013B   22174.00000000  .00000149  00000-0  00000-0 0  1744
2 27715   3.2851  85.4989 0002014   9.6221  47.0131  1.00271180    10
GALAXY 12 (G-12)        
1 27715C 03013B   22178.00000000  .00000149  00000-0  00000-0 0  1782
2 27715   3.2966  85.4630 0001970  13.7106  46.9039  1.00272855    13
GALAXY 12 (G-12)    [PM]
1 27715C 03013B   22179.60266204  .00000149  00000-0  00000-0 0  1790
2 27715   3.3005  85.4715 0001059  22.5547 256.6010  1.00270109    16
GALAXY 23 (G-23)        
1 27854C 03034A   22174.00000000  .00000103  00000-0  00000-0 0  1741
2 27854   0.0449 269.2457 0002823 188.5047  52.3860  1.00274838    16
GALAXY 23 (G-23)        
1 27854C 03034A   22178.00000000  .00000109  00000-0  00000-0 0  1785
2 27854   0.0376 272.4656 0002428 184.7171  56.9018  1.00270540    10
GALAXY 23 (G-23)    [PM]
1 27854C 03034A   22184.17631944 -.00003251  00000-0  00000-0 0  1846
2 27854   0.0360 247.4311 0002497 216.3592 119.8434  1.00271305    19
GALAXY 13               
1 27954C 03044A   22174.00000000  .00000245  00000-0  00000-0 0  1740
2 27954   0.0053 322.2758 0002086  37.1845 144.6650  1.00270347    11
GALAXY 13               
1 27954C 03044A   22178.00000000 -.00002720  00000-0  00000-0 0  1789
2 27954   0.0001  24.0181 0001810 170.5366 313.5324  1.00268681    18
GALAXY 13           [PM]
1 27954C 03044A   22186.47875000 -.00003488  00000-0  00000-0 0  1860
2 27954   0.0019  68.7465 0000882 293.1550 326.8725  1.00269805    13
INTELSAT 10-02          
1 28358C 04022A   22173.94164352  .00000079  00000-0  00000-0 0  1733
2 28358   0.0063 315.1276 0000957 197.0756  96.8754  1.00270377    15
INTELSAT 10-02          
1 28358C 04022A   22178.00000000  .00000079  00000-0  00000-0 0  1789
2 28358   0.0069 323.5354 0000658 185.2563 125.2961  1.00270931    17
GALAXY 28 (G-28)        
1 28702C 05022A   22173.94164352 -.00000095  00000-0  00000-0 0  1736
2 28702   0.0104 356.9403 0002773 138.4691  25.6586  1.00270441    19
GALAXY 28 (G-28)        
1 28702C 05022A   22178.00000000 -.00000095  00000-0  00000-0 0  1782
2 28702   0.0130 347.1759 0002631 147.4956  51.4174  1.00270835    18
GALAXY 28 (G-28)    [PM]
1 28702C 05022A   22178.75893519 -.00000096  00000-0  00000-0 0  1780
2 28702   0.0113 351.9234 0002904 149.9273 318.2010  1.00270660    11
GALAXY 28 (G-28)    [PM]
1 28702C 05022A   22181.27372685 -.00000095  00000-0  00000-0 0  1810
2 28702   0.0126 341.4300 0002242 143.1825 163.2485  1.00272366    16
GALAXY 14 (G-14)        
1 28790C 05030A   22174.00000000  .00000246  00000-0  00000-0 0  1747
2 28790   1.2769  92.1444 0001901   0.7788 211.1049  1.00273742    13
GALAXY 14 (G-14)        
1 28790C 05030A   22178.00000000  .00000246  00000-0  00000-0 0  1785
2 28790   1.2886  92.0967 0001609 352.0591 223.8363  1.00269436    16
GALAXY 14 (G-14)    [PM]
1 28790C 05030A   22178.61111111  .00000246  00000-0  00000-0 0  1788
2 28790   1.2901  92.1067 0001672 354.6349  81.8487  1.00269593    18
GALAXY 15 (G-15)        
1 28884C 05041A   22174.00000000  .00000169  00000-0  00000-0 0  1747
2 28884   0.0124 339.4088 0001460 117.6314  41.0917  1.00272511    10
GALAXY 15 (G-15)    [PM]
1 28884C 05041A   22177.87604167  .00000169  00000-0  00000-0 0  1772
2 28884   0.0102  15.4639 0001489  78.5816   3.2919  1.00270870    10
GALAXY 15 (G-15)        
1 28884C 05041A   22178.00000000  .00000170  00000-0  00000-0 0  1787
2 28884   0.0105  15.2687 0001503  79.4334  47.3825  1.00270936    14
GALAXY 16 (G-16)        
1 29236C 06023A   22174.00000000 -.00000060  00000-0  00000-0 0  1741
2 29236   0.0015  36.2859 0002868  70.7741  65.0663  1.00272187    18
GALAXY 16 (G-16)        
1 29236C 06023A   22178.00000000 -.00002759  00000-0  00000-0 0  1786
2 29236   0.0249 291.5863 0002957 184.6213  59.8714  1.00273313    16
GALAXY 16 (G-16)    [PM]
1 29236C 06023A   22181.99652778 -.00000064  00000-0  00000-0 0  1814
2 29236   0.0115 309.0861 0002419 153.3716  76.3080  1.00272166    10
GALAXY 17 (G-17)        
1 31307C 07016B   22174.00000000 -.00000087  00000-0  00000-0 0  1745
2 31307   0.0036 355.5802 0002323 102.1936  82.3650  1.00271586    10
GALAXY 17 (G-17)        
1 31307C 07016B   22178.00000000 -.00000077  00000-0  00000-0 0  1782
2 31307   0.0101  39.9552 0002250  65.3038  78.8213  1.00271537    11
GALAXY 17 (G-17)    [PM]
1 31307C 07016B   22180.98837963 -.00000084  00000-0  00000-0 0  1809
2 31307   0.0181  67.2933 0002191  40.0853  75.4591  1.00273527    18
